[{"OBJECT_NAME":"OBJECT G","OBJECT_ID":"2024-205G","EPOCH":"2026-03-09T23:05:54.449664","MEAN_MOTION":15.09392775,"ECCENTRICITY":0.00211709,"INCLINATION":97.4199,"RA_OF_ASC_NODE":141.9686,"ARG_OF_PERICENTER":130.0324,"MEAN_ANOMALY":230.2768,"EPHEMERIS_TYPE":0,"CLASSIFICATION_TYPE":"U","NORAD_CAT_ID":61900,"ELEMENT_SET_NO":999,"REV_AT_EPOCH":7318,"BSTAR":0.00059967322,"MEAN_MOTION_DOT":9.576e-5,"MEAN_MOTION_DDOT":0},{"OBJECT_NAME":"PEGASUS DEB","OBJECT_ID":"1994-029JY","EPOCH":"2026-03-09T23:11:54.295296","MEAN_MOTION":14.90653362,"ECCENTRICITY":0.0070631,"INCLINATION":82.0876,"RA_OF_ASC_NODE":46.3317,"ARG_OF_PERICENTER":279.2549,"MEAN_ANOMALY":134.3773,"EPHEMERIS_TYPE":0,"CLASSIFICATION_TYPE":"U","NORAD_CAT_ID":24197,"ELEMENT_SET_NO":999,"REV_AT_EPOCH":68196,"BSTAR":0.0004359638,"MEAN_MOTION_DOT":4.503e-5,"MEAN_MOTION_DDOT":0}]
